ENVISAT                 
1 27386U 02009A   23087.52786684  .00000525  00000+0  18620-3 0  9994
2 27386  98.2230  60.8812 0001405  86.3873  22.6930 14.38298041104290
IDEFIX & ARIANE 42P R/B 
1 27422U 02021B   23087.41707048  .00000690  00000+0  28568-3 0  9999
2 27422  98.4839  30.3998 0013142 116.8124 243.4404 14.29627405 90028
AQUA                    
1 27424U 02022A   23087.51822571  .00001999  00000+0  44631-3 0  9994
2 27424  98.2799  32.2578 0002108  73.4482  62.9249 14.57880107111568
CZ-4B R/B               
1 27432U 02024C   23087.55016226  .00000114  00000+0  82663-4 0  9997
2 27432  99.0335 121.2799 0050220 193.2598 330.0239 14.14196268 76977
MIDORI II (ADEOS-II)    
1 27597U 02056A   23087.45158152  .00000767  00000+0  32791-3 0  9998
2 27597  98.6410  32.5610 0000240  69.6006 290.5200 14.27838920 56496
H-2A R/B                
1 27601U 02056E   23087.56649539  .00000591  00000+0  22693-3 0  9995
2 27601  98.1900  83.2021 0072768 133.0283 337.4801 14.32291981 59843
CZ-4B R/B               
1 28059U 03049C   23087.45718114  .00000946  00000+0  23739-3 0  9996
2 28059  98.5524  34.2034 0048506 280.3471  79.2259 14.53087683 30050
CZ-2C R/B               
1 28222U 04012C   23087.54026573  .00009879  00000+0  50372-3 0  9997
2 28222  97.8005  79.6870 0042383 155.1864 205.1419 15.16172311 39220
SL-16 R/B               
1 28353U 04021B   23087.68118486 -.00000163  00000+0 -60119-4 0  9992
2 28353  71.0032 332.1333 0007350 247.0192 113.0155 14.14317743970540
CZ-4B R/B               
1 28415U 04035C   23087.55565041  .00006038  00000+0  36315-3 0  9990
2 28415  97.4798 126.5558 0049518 124.6946 235.8963 15.10170601 16440
CZ-2C R/B               
1 28480U 04046B   23087.52908389  .00000411  00000+0  16947-3 0  9995
2 28480  98.1028  58.3942 0142680 100.7937 260.9341 14.25981499954927
ARIANE 5 R/B            
1 28499U 04049H   23087.37321161  .00002159  00000+0  26740-3 0  9991
2 28499  98.1217 212.2520 0089579 236.8257 189.8424 14.81028106986096
CZ-2D R/B               
1 28738U 05024B   23087.55706935  .00010164  00000+0  51743-3 0  9993
2 28738  97.3563  91.3659 0008629 271.7009  88.3236 15.16967000974765
SUZAKU (ASTRO-EII)      
1 28773U 05025A   23087.47681116  .00017157  00000+0  63610-3 0  9992
2 28773  31.3786 239.4619 0003938  23.9232 336.1600 15.26429189978364
ALOS (DAICHI)           
1 28931U 06002A   23087.46620273  .00002623  00000+0  51005-3 0  9997
2 28931  97.9783  47.4382 0002166  88.4034 271.7413 14.63928453915968
H-2A R/B                
1 28932U 06002B   23087.18953721  .00006306  00000+0  53807-3 0  9998
2 28932  98.2497 149.8398 0082316 239.0030 120.3086 14.95481200932417
AKARI (ASTRO-F)         
1 28939U 06005A   23087.27053986  .00523733  11560-3  12599-2 0  9999
2 28939  98.1746 208.0433 0025276 311.6736  48.2373 15.95854799937285
RESURS-DK 1             
1 29228U 06021A   23087.53878132  .00002619  00000+0  19408-3 0  9991
2 29228  69.9345 124.5458 0006445 315.0093  45.0546 15.04420939925119
GENESIS 1               
1 29252U 06029A   23087.53107693  .00016174  00000+0  63931-3 0  9994
2 29252  64.5202 215.9570 0035557 221.5778 138.2644 15.25068590922212
CZ-4B R/B               
1 29507U 06046C   23087.53450000  .00004237  00000+0  30958-3 0  9999
2 29507  97.6975 121.2101 0043707 356.6425   3.4500 15.03429149897529
CZ-2C R/B               
1 31114U 07010B   23087.41436991  .00000352  00000+0  18254-3 0  9997
2 31114  98.2679 246.2973 0059509 188.8236 171.1901 14.19536756826845
COSMO-SKYMED 1          
1 31598U 07023A   23087.48635734  .00000549  00000+0  75519-4 0  9996
2 31598  97.8869 272.1279 0001308  88.1820 271.9720 14.82149311855037
GENESIS 2               
1 31789U 07028A   23087.55660871  .00012796  00000+0  51143-3 0  9994
2 31789  64.4945 259.8162 0058969 272.4025  87.0350 15.23809442869110
COSMOS 2428             
1 31792U 07029A   23087.59174669 -.00000209  00000+0 -87257-4 0  9992
2 31792  70.9372 303.9208 0010164 339.7754  20.2963 14.12562804811978
SL-16 R/B               
1 31793U 07029B   23087.60213576 -.00000180  00000+0 -68721-4 0  9999
2 31793  70.9741 275.9110 0002545 259.4167 158.3061 14.14523422813046
KORONAS-FOTON           
1 33504U 09003A   23087.62393022  .00006625  00000+0  30931-3 0  9991
2 33504  82.4382 292.0645 0017884   8.4291 351.7240 15.19511168781202
CZ-2C R/B               
1 37731U 11030B   23087.50826829  .00002047  00000+0  29830-3 0  9993
2 37731  97.7068  65.0505 0056686 247.7676 224.2867 14.75795581630935
H-2A R/B                
1 38341U 12025E   23087.53591194  .00002842  00000+0  32657-3 0  9997
2 38341  98.4675 326.2345 0052938 211.1503 148.6569 14.85728283587811
CUSAT 2 & FALCON 9 R/B  
1 39271U 13055G   23087.50054329  .00028383  00000+0  54119-3 0  9990
2 39271  80.9514 239.1003 0465202 314.6760  41.7398 14.78767969498495
SHIJIAN-16 (SJ-16)      
1 39358U 13057A   23087.60350577  .00002211  00000+0  24996-3 0  9995
2 39358  74.9741  55.2774 0019724 199.7009 160.3422 14.86862526511216
CZ-2C R/B               
1 39364U 13059B   23087.58046753  .00025245  00000+0  63245-3 0  9991
2 39364  97.1164 136.7113 0036165  33.2094 327.1412 15.39359360523777
SL-4 R/B                
1 39679U 14021B   23087.25530442  .00006112  00000+0  27783-3 0  9996
2 39679  51.6137  71.9138 0155313 226.8878 131.9016 15.11987823491995
ALOS-2                  
1 39766U 14029A   23087.59811845 -.00000465  00000+0 -55430-4 0  9995
2 39766  97.9186 185.6524 0001492  90.9371 269.1998 14.79469332477649
SL-27 R/B               
1 40354U 14084B   23087.54179608  .00018491  00000+0  32520-3 0  9990
2 40354  74.7340  82.0947 0026585 120.2947 240.0905 15.50008125464500
YAOGAN-29               
1 41038U 15069A   23087.58645933  .00001212  00000+0  16252-3 0  9994
2 41038  98.0645  94.2754 0000434  83.9656 276.1602 14.81219364396347
ASTRO-H (HITOMI)        
1 41337U 16012A   23087.37306605  .00004394  00000+0  33246-3 0  9998
2 41337  31.0053  56.2554 0011523  15.6425 344.4565 15.00655090389781
HXMT (HUIYAN)           
1 42758U 17034A   23087.52194108  .00009434  00000+0  55201-3 0  9996
2 42758  43.0166 223.8432 0009445 251.4033 151.5035 15.11971476319164
CZ-2C R/B               
1 43521U 18054D   23087.24423385  .00012916  00000+0  59621-3 0  9998
2 43521  35.1534  37.8323 0070822  80.3424 280.5283 15.17183964262737
AEOLUS                  
1 43600U 18066A   23087.53282685  .00174769  00000+0  65595-3 0  9999
2 43600  96.7240  94.1140 0006738  98.8664 261.3372 15.87379021266176
SAOCOM 1A               
1 43641U 18076A   23087.49466411  .00001196  00000+0  15669-3 0  9991
2 43641  97.8879 275.1356 0001367  82.4051 277.7327 14.82176090241802
H-2A R/B                
1 43682U 18084L   23087.54817213  .00009162  00000+0  59022-3 0  9993
2 43682  98.9015  99.0235 0053256  50.9894 309.6054 15.07442940242068
SAOCOM 1B               
1 46265U 20059A   23087.59338570  .00001200  00000+0  15726-3 0  9995
2 46265  97.8895 274.3015 0001282  87.9840 272.1519 14.82159204139211
CSS (TIANHE)            
1 48274U 21035A   23087.56312900  .00045398  00000+0  47396-3 0  9992
2 48274  41.4746 287.5962 0004282 253.2299 142.3725 15.63674601109227
2022-019U               
1 51842U 22019U   23087.69055889  .00025973  00000+0  83120-3 0  9996
2 51842  97.5312 173.0628 0058018 267.9016 247.9704 15.30722424 60132
CZ-2C R/B               
1 52794U 22058K   23080.56456864  .00008756  00000+0  44249-3 0  9992
2 52794  50.1697 290.2345 0097580 117.3870 243.7195 15.13719380    18
CZ-2C R/B               
1 53131U 22082D   23087.54268918  .00029174  00000+0  61170-3 0  9990
2 53131  97.3537 101.4420 0041350 168.0100 192.2143 15.44418110 39317
CREW DRAGON 4 DEB       
1 54047U 22042B   23087.67135673  .00869993  38571-3  13962-2 0  9992
2 54047  51.3131 340.7113 0007386 216.2502 143.8109 16.02953971 25856
